DUBAISAT-1
1 35682U 09041B   18094.48700135  .00000068  00000-0  19538-4 0  9992
2 35682  97.7642 305.9569 0010544 308.8156  51.2110 14.68660622464963
